296P/Garradd,e,25.2351,263.6405,350.1210,3.496668,0.1507379,0.47850985,338.9093,05/01.0/2020,2000,g 14.0,4.0
# From MPC102956
297P/Beshore,e,10.3286,97.6612,132.4619,3.443197,0.1542628,0.31935663,318.8520,05/01.0/2020,2000,g 15.0,4.0
# From MPC114609
298P/Christensen,e,7.8702,52.8289,100.6948,3.593604,0.1446801,0.38692945,341.4241,05/01.0/2020,2000,g 15.0,4.0
# From MPC101100
299P/Catalina-PANSTARRS,e,10.4779,271.6229,323.9033,4.383413,0.1073954,0.28209390,203.2164,05/01.0/2020,2000,g 11.5,4.0
# From MPC114609
300P/Catalina,e,5.6765,95.6699,222.8637,2.700035,0.2221518,0.69166824,121.2599,05/01.0/2020,2000,g 16.0,4.0
# From MPC 89014
301P/LINEAR-NEAT,e,10.3460,351.1797,193.7309,5.737360,0.0717193,0.58584139,148.4803,05/01.0/2020,2000,g 13.0,4.0
# From MPEC 2020-H67
302P/Lemmon-PANSTARRS,e,6.0340,121.7541,208.1653,4.277781,0.1113977,0.22971243,162.7165,05/01.0/2020,2000,g 12.5,4.0
# From MPC 92278
303P/NEAT,e,7.0168,347.9708,356.8487,5.049885,0.0868524,0.50997871,175.8656,05/01.0/2020,2000,g 13.5,4.0
# From MPC 92987
304P/Ory,e,2.6067,58.9377,335.2209,3.150081,0.1762875,0.60042026,341.7591,05/01.0/2020,2000,g 16.5,4.0
# From MPC101100
305P/Skiff,e,11.6399,240.1375,147.2629,4.645415,0.0984390,0.69265960,196.3286,05/01.0/2020,2000,g 18.0,4.0
# From MPC 92278
306P/LINEAR,e,8.3104,341.3834,0.8032,3.121467,0.1787170,0.59318006,17.7177,05/01.0/2020,2000,g 19.0,4.0
# From MPC 92278
307P/LINEAR,e,4.4310,158.1241,222.1714,5.795579,0.0706413,0.67391562,138.4194,05/01.0/2020,2000,g 15.0,4.0
# From MPC109148
308P/Lagerkvist-Carsenty,e,4.8493,63.1136,333.6410,6.608860,0.0580115,0.36257160,105.7578,05/01.0/2020,2000,g 13.0,2.0
# From MPC 94284
309P/LINEAR,e,17.0240,10.1454,50.0001,4.370576,0.1078689,0.61756562,205.7807,05/01.0/2020,2000,g 15.0,4.0
# From MPC 98566
310P/Hill,e,13.1283,8.9281,31.8885,4.177307,0.1154408,0.42168323,213.0928,05/01.0/2020,2000,g 13.5,4.0
# From MPC109593
311P/PANSTARRS,e,4.9700,279.2267,144.5923,2.188351,0.3044588,0.11527472,311.4511,05/01.0/2020,2000,g 17.0,4.0
# From MPC 92279
312P/NEAT,e,19.7656,144.6709,207.5197,3.468190,0.1525983,0.42816238,337.5742,05/01.0/2020,2000,g 16.0,4.0
# From MPEC 2019-TG9
313P/Gibbs,e,10.9834,105.9720,254.6077,3.161014,0.1753737,0.23477317,2.7759,05/01.0/2020,2000,g 15.0,4.0
# From MPC105243
314P/Montani,e,3.9790,267.6203,214.2385,7.276878,0.0502096,0.41636668,65.2550,05/01.0/2020,2000,g  9.5,4.0
# From MPC115888
315P/LONEOS,e,17.8437,69.1968,65.6278,4.942576,0.0896962,0.52266896,111.6315,05/01.0/2020,2000,g 11.0,4.0
# From MPC 92279
316P/LONEOS-Christensen,e,9.8841,246.7633,193.8755,4.346362,0.1087715,0.16087483,179.1080,05/01.0/2020,2000,g 13.5,4.0
# From MPEC 2020-C98
317P/WISE,e,11.9509,275.5198,334.9026,2.965332,0.1930163,0.57043070,331.3991,05/01.0/2020,2000,g 17.5,4.0
# From MPC102103
318P/McNaught-Hartley,e,17.8720,35.6562,313.1008,7.496415,0.0480202,0.67481977,79.3073,05/01.0/2020,2000,g  8.5,6.0
# From MPC 97499
319P/Catalina-McNaught,e,15.0954,111.3797,203.6082,3.569224,0.1461650,0.66644073,257.7656,05/01.0/2020,2000,g 15.0,4.0
# From MPC 96281
320P/McNaught,e,4.9089,295.9304,0.7658,3.094229,0.1810820,0.68571149,312.7114,05/01.0/2020,2000,g 20.5,4.0
# From MPC105243
321P/SOHO,e,20.0463,165.0453,172.7242,2.422977,0.2613245,0.98106287,0.0000,01/17.2512/2020,2000,g 20.0,4.0
# From MPC102103
322P/SOHO,e,11.4595,351.4681,56.9380,2.508532,0.2480702,0.97976674,0.0000,08/31.5045/2019,2000,g 19.0,4.0
# From MPEC 2016-Y36
323P/SOHO,e,5.3363,324.3746,353.0472,2.582443,0.2374969,0.98482908,0.0000,01/17.7558/2021,2000,g 20.0,4.0
# From MPC108598
324P/La Sagra,e,21.4232,270.6435,58.0873,3.095136,0.1810024,0.15450137,292.7263,05/01.0/2020,2000,g 13.0,4.0
# From MPC114609
325P/Yang-Gao,e,16.7009,257.5795,343.6808,3.524203,0.1489748,0.59379933,256.1704,05/01.0/2020,2000,g 14.0,4.0
# From MPC103849
326P/Hill,e,2.4707,99.8147,278.5909,4.064897,0.1202624,0.31714328,198.8799,05/01.0/2020,2000,g 13.5,4.0
# From MPC 97499
327P/Van Ness,e,36.2390,173.9688,185.0180,3.563213,0.1465350,0.56265468,234.7539,05/01.0/2020,2000,g 16.0,4.0
# From MPC109148
328P/LONEOS-Tucker,e,17.6659,341.6156,30.4876,4.196572,0.1146468,0.55143427,182.2926,05/01.0/2020,2000,g 14.5,4.0
# From MPC101101
329P/LINEAR-Catalina,e,21.6633,87.6860,343.5670,5.193624,0.0832719,0.67679125,134.3694,05/01.0/2020,2000,g 13.5,4.0
# From MPC105243
330P/Catalina,e,15.6942,293.0958,189.0177,6.633918,0.0576831,0.54898817,77.4039,05/01.0/2020,2000,g 12.0,4.0
# From MPC110497
331P/Gibbs,e,9.7403,216.7781,183.7152,3.002936,0.1894022,0.04052802,331.3090,05/01.0/2020,2000,g 12.0,4.0
# From MPEC 2016-K18
332P/Ikeya-Murakami,e,9.3812,3.7940,152.3821,3.087787,0.1816490,0.48945791,273.8114,05/01.0/2020,2000,g 18.0,4.0
# From MPEC 2016-EI8
332P-B/Ikeya-Murakami,e,9.3805,3.8028,152.3711,3.082329,0.1821317,0.48970701,359.9699,03/17.0/2016,2000,g 19.0,4.0
# From MPEC 2016-K18
332P-C/Ikeya-Murakami,e,9.3803,3.7944,152.3733,3.087753,0.1816520,0.48946330,273.8241,05/01.0/2020,2000,g 16.5,4.0
# From MPEC 2016-ED0
332P-D/Ikeya-Murakami,e,9.3761,3.7923,152.4393,3.081138,0.1822373,0.48977814,359.9486,03/17.0/2016,2000,g 19.0,4.0
# From MPEC 2016-ED0
332P-E/Ikeya-Murakami,e,9.3774,3.8228,152.2825,3.079877,0.1823493,0.48922008,359.9889,03/17.0/2016,2000,g 21.0,4.0
# From MPEC 2016-ED0
332P-F/Ikeya-Murakami,e,9.5293,3.4757,152.8203,3.163214,0.1751908,0.49918860,359.8501,03/17.0/2016,2000,g 21.0,4.0
# From MPEC 2016-ED0
332P-G/Ikeya-Murakami,e,9.2523,3.6955,154.4000,3.050519,0.1849880,0.49200362,359.9006,03/19.0/2016,2000,g 19.0,4.0
# From MPC100285
332P-H/Ikeya-Murakami,e,9.3808,3.7942,152.3741,3.087937,0.1816358,0.48949848,273.7667,05/01.0/2020,2000,g 19.0,4.0
# From MPEC 2016-ED0
332P-I/Ikeya-Murakami,e,9.3791,3.8048,152.3297,3.081767,0.1821815,0.48955490,359.9360,03/17.0/2016,2000,g 20.5,2.0
# From MPEC 2016-EI8
332P-J/Ikeya-Murakami,e,9.4296,3.6729,152.7712,3.115165,0.1792596,0.49429435,359.8613,03/17.0/2016,2000,g 20.5,2.0
# From MPC104796
333P/LINEAR,e,131.9784,115.6247,26.0620,4.220035,0.1136920,0.73626407,169.4381,05/01.0/2020,2000,g 15.0,4.0
# From MPC111774
334P/NEAT,e,20.5219,90.7568,89.6963,6.837109,0.0551309,0.35531929,58.2266,05/01.0/2020,2000,g 10.5,4.0
# From MPC100285
335P/Gibbs,e,7.2907,330.8421,162.2401,3.578970,0.1455684,0.54506837,238.6476,05/01.0/2020,2000,g 17.0,4.0
# From MPC105244
336P/McNaught,e,17.8340,298.2271,308.7059,5.029384,0.0873840,0.44579429,103.3519,05/01.0/2020,2000,g 13.5,4.0
# From MPC112394
337P/WISE,e,15.3740,106.0721,160.9717,3.287863,0.1653231,0.49694813,229.2548,05/01.0/2020,2000,g 17.0,4.0
# From MPC104796
338P/McNaught,e,25.3661,9.7869,4.4018,3.898882,0.1280248,0.41083243,160.7935,05/01.0/2020,2000,g 12.0,4.0
# From MPC101101
339P/Gibbs,e,5.7366,172.7539,27.5227,3.695161,0.1387567,0.63604483,191.1498,05/01.0/2020,2000,g 17.0,4.0
# From MPC102957
340P/Boattini,e,2.0798,291.7287,35.7753,4.251790,0.1124207,0.28048842,141.5015,05/01.0/2020,2000,g 13.0,4.0
# From MPC109148
341P/Gibbs,e,3.7942,30.0064,312.0968,4.295085,0.1107252,0.41491686,158.8130,05/01.0/2020,2000,g 12.5,4.0
# From MPC101101
342P/SOHO,e,12.1522,36.2198,65.0578,3.043291,0.1856474,0.98342095,0.0000,10/19.0333/2021,2000,g  9.0,4.0
# From MPC109148
343P/NEAT-LONEOS,e,5.5829,257.2441,137.3826,5.463111,0.0771870,0.58357106,91.8051,05/01.0/2020,2000,g 14.0,4.0
# From MPC109148
344P/Read,e,3.4902,273.1938,140.4316,4.868734,0.0917445,0.42131715,117.2120,05/01.0/2020,2000,g 13.0,4.0
# From MPC109148
345P/LINEAR,e,2.7262,154.4974,196.3446,4.041003,0.1213306,0.22038439,168.0412,05/01.0/2020,2000,g 12.0,4.0
# From MPC110086
346P/Catalina,e,22.1853,102.4689,336.0355,4.477065,0.1040432,0.50234439,121.9152,05/01.0/2020,2000,g 14.0,4.0
# From MPC108599
347P/PANSTARRS,e,11.7476,261.0487,98.2868,3.607741,0.1438305,0.38517394,190.9084,05/01.0/2020,2000,g 15.0,4.0
# From MPC104796
348P/PANSTARRS,e,17.7276,312.9392,135.2484,3.156875,0.1757187,0.30608631,245.4757,05/01.0/2020,2000,g 14.0,4.0
# From MPC112394
349P/Lemmon,e,5.4913,331.7528,256.0374,3.571477,0.1460267,0.29960795,142.9099,05/01.0/2020,2000,g 14.0,4.0
# From MPC111775
350P/McNaught,e,7.3569,65.4117,141.2825,4.099616,0.1187379,0.09060857,102.2100,05/01.0/2020,2000,g 14.0,4.0
# From MPC105244
351P/Wiegert-PANSTARRS,e,12.7910,283.4491,352.6023,4.436599,0.1054700,0.29620685,171.4354,05/01.0/2020,2000,g 12.5,4.0
# From MPC110086
352P/Skiff,e,21.0096,28.1152,309.1083,6.633691,0.0576861,0.61802503,60.2235,05/01.0/2020,2000,g 11.5,4.0
# From MPEC 2020-AA5
353P/McNaught,e,28.4242,121.5623,230.3729,4.171609,0.1156775,0.46972803,99.6915,05/01.0/2020,2000,g 14.5,4.0
# From MPC105545
354P/LINEAR,e,5.2554,320.1300,133.0801,2.290033,0.2844078,0.12565119,0.9827,05/01.0/2020,2000,g 15.5,4.0
# From MPEC 2020-AA5
355P/LINEAR-NEAT,e,11.0343,51.4463,336.2544,3.473183,0.1522694,0.50662708,141.8203,05/01.0/2020,2000,g 15.5,2.0
# From MPC109148
356P/WISE,e,9.6336,160.7888,226.0491,4.161582,0.1160958,0.35442740,100.5559,05/01.0/2020,2000,g 14.0,4.0
# From MPC114609
357P/Hill,e,6.3090,44.5898,1.4439,4.462918,0.1045384,0.43433386,73.5171,05/01.0/2020,2000,g 15.5,4.0
# From MPEC 2020-H67
358P/PANSTARRS,e,11.0570,85.7182,299.7552,3.149071,0.1763723,0.23791473,132.3977,05/01.0/2020,2000,g 18.0,4.0
# From MPC110086
359P/LONEOS,e,10.2640,149.7616,200.1164,4.639437,0.0986293,0.32375099,97.0736,05/01.0/2020,2000,g 13.5,4.0
# From MPC108599
360P/WISE,e,24.0909,2.1981,354.1103,3.703377,0.1382952,0.49840938,136.4011,05/01.0/2020,2000,g 19.5,6.0
# From MPC114609
361P/Spacewatch,e,13.8848,203.2587,219.1338,4.941856,0.0897158,0.43772297,60.0046,05/01.0/2020,2000,g 12.0,4.0
# From MPEC 2017-V13
362P/,e,15.5608,192.5958,53.6596,3.966994,0.1247417,0.28007986,167.8941,05/01.0/2020,2000,g 12.9,2.0
# From MPC114609
363P/Lemmon,e,4.3143,159.1675,327.4301,3.454776,0.1534879,0.56009727,116.8677,05/01.0/2020,2000,g 17.5,4.0
# From MPC114609
364P/PANSTARRS,e,12.1489,46.2156,211.9715,2.878613,0.2018037,0.72255886,136.5439,05/01.0/2020,2000,g 17.0,2.0
# From MPC111775
